NORAD_CAT_ID,OBJECT_NAME,OBJECT_TYPE,EPOCH,MEAN_MOTION,ECCENTRICITY,INCLINATION,RA_OF_ASC_NODE,ARG_OF_PERICENTER,MEAN_ANOMALY,BSTAR,MEAN_MOTION_DOT,MEAN_MOTION_DDOT,TLE_LINE0,TLE_LINE1,TLE_LINE2,SEMIMAJOR_AXIS,PERIOD,APOGEE,PERIGEE,DECAYED
53032.0,STARLINK-4115,PAYLOAD,2022-07-23 16:00:00,15.73187735,0.0001894,53.218,299.7731,29.2505,80.8695,0.00058669,0.00082489,0.0,0 STARLINK-4115,1 53032U 22076AY  22204.66667824  .00082489  00000-0  58669-3 0  9993,2 53032  53.2180 299.7731 0001894  29.2505  80.8695 15.73187735  3036,6727.93,91.534,351.069,348.521,0.0
53032.0,STARLINK-4115,PAYLOAD,2022-07-23 22:00:00,15.73276411,0.0001864,53.2175,298.5348,30.4581,56.3576,-0.00057623,-0.00080986,0.0,0 STARLINK-4115,1 53032U 22076AY  22204.91667824 -.00080986  00000-0 -57623-3 0  9992,2 53032  53.2175 298.5348 0001864  30.4581  56.3576 15.73276411  1300,6727.677,91.529,350.796,348.288,0.0
53032.0,STARLINK-4115,PAYLOAD,2022-07-24 06:00:00,15.73183128,0.0001751,53.2179,296.8842,38.9874,136.8017,0.00044541,0.00062311,0.0,0 STARLINK-4115,1 53032U 22076AY  22205.25001157  .00062311  00000-0  44541-3 0  9996,2 53032  53.2179 296.8842 0001751  38.9874 136.8017 15.73183128  3125,6727.943,91.534,350.986,348.63,0.0
53032.0,STARLINK-4115,PAYLOAD,2022-07-24 14:00:01,15.73245453,0.0001973,53.218,295.237,32.7367,231.9791,-0.0005055,-0.00071111,0.0,0 STARLINK-4115,1 53032U 22076AY  22205.58334491 -.00071111  00000-0 -50550-3 0  9999,2 53032  53.2180 295.2370 0001973  32.7367 231.9791 15.73245453  1305,6727.766,91.531,350.958,348.30300000000005,0.0
53032.0,STARLINK-4115,PAYLOAD,2022-07-24 22:00:00,15.73218753,0.0001911,53.2182,293.5865,29.8883,323.7824,-0.00075704,-0.00105636,0.0,0 STARLINK-4115,1 53032U 22076AY  22205.91667824 -.00105636  00000-0 -75704-3 0  9993,2 53032  53.2182 293.5865 0001911  29.8883 323.7824 15.73218753  3233,6727.842,91.532,350.992,348.421,0.0
53032.0,STARLINK-4115,PAYLOAD,2022-07-25 14:00:01,15.73146123,0.0002223,53.2181,290.289,33.5749,137.8574,0.00031042,0.00043071,0.0,0 STARLINK-4115,1 53032U 22076AY  22206.58334491  .00043071  00000-0  31042-3 0  9997,2 53032  53.2181 290.2890 0002223  33.5749 137.8574 15.73146123  1307,6728.049,91.536,351.409,348.418,0.0
53032.0,STARLINK-4115,PAYLOAD,2022-07-25 22:00:00,15.73195621,0.0002095,53.2176,288.6385,34.9248,225.3871,-3.9035e-05,-6.095e-05,0.0,0 STARLINK-4115,1 53032U 22076AY  22206.91667824 -.00006095  00000-0 -39035-4 0  9991,2 53032  53.2176 288.6385 0002095  34.9248 225.3871 15.73195621  1307,6727.908,91.533,351.182,348.36300000000006,0.0
53032.0,STARLINK-4115,PAYLOAD,2022-07-26 14:00:01,15.73206395,0.0002236,53.2179,285.3413,34.0946,44.0722,0.00035365,0.0004932,0.0,0 STARLINK-4115,1 53032U 22076AY  22207.58334491  .00049320  00000-0  35365-3 0  9993,2 53032  53.2179 285.3413 0002236  34.0946  44.0722 15.73206395  3493,6727.877,91.533,351.246,348.23800000000006,0.0
53032.0,STARLINK-4115,PAYLOAD,2022-07-26 22:00:00,15.73261228,0.0002149,53.218,283.6904,33.561,133.5674,-3.5408000000000004e-05,-5.601e-05,0.0,0 STARLINK-4115,1 53032U 22076AY  22207.91667824 -.00005601  00000-0 -35408-4 0  9994,2 53032  53.2180 283.6904 0002149  33.5610 133.5674 15.73261228  1300,6727.721,91.53,351.031,348.14,0.0
53032.0,STARLINK-4115,PAYLOAD,2022-07-27 14:00:01,15.7322992,0.0002221,53.2177,280.3929,26.5003,318.6175,-0.00036069,-0.00051006,0.0,0 STARLINK-4115,1 53032U 22076AY  22208.58334491 -.00051006  00000-0 -36069-3 0  9992,2 53032  53.2177 280.3929 0002221  26.5003 318.6175 15.73229920  1301,6727.81,91.531,351.1690000000001,348.181,0.0
53032.0,STARLINK-4115,PAYLOAD,2022-07-27 16:00:00,15.73200788,0.0002218999999999,53.2173,279.9805,24.3209,73.0431,-2.1383e-05,-3.622e-05,0.0,0 STARLINK-4115,1 53032U 22076AY  22208.66667824 -.00003622  00000-0 -21383-4 0  9995,2 53032  53.2173 279.9805 0002219  24.3209  73.0431 15.73200788  3664,6727.893,91.533,351.251,348.265,0.0
53032.0,STARLINK-4115,PAYLOAD,2022-07-27 22:00:00,15.73067072,0.0002097,53.2176,278.7367,26.6657,47.4514,0.0011482999999999,0.00162771,0.0,0 STARLINK-4115,1 53032U 22076AY  22208.91667824  .00162771  00000-0  11483-2 0  9990,2 53032  53.2176 278.7367 0002097  26.6657  47.4514 15.73067072  1306,6728.274,91.541,351.55,348.728,0.0
53032.0,STARLINK-4115,PAYLOAD,2022-07-28 00:00:00,15.73059343,0.0002083,53.2176,278.3232,26.8445,159.4841,0.0015505999999999,0.00221497,0.0,0 STARLINK-4115,1 53032U 22076AY  22209.00001157  .00221497  00000-0  15506-2 0  9993,2 53032  53.2176 278.3232 0002083  26.8445 159.4841 15.73059343  3711,6728.295999999999,91.541,351.56300000000016,348.76,0.0
53032.0,STARLINK-4115,PAYLOAD,2022-07-28 08:00:01,15.73319754,0.0001934,53.2172,276.6769,24.8937,250.3432,-0.0015709,-0.00216637,0.0,0 STARLINK-4115,1 53032U 22076AY  22209.33334491 -.00216637  00000-0 -15709-2 0  9996,2 53032  53.2172 276.6769 0001934  24.8937 250.3432 15.73319754  3779,6727.554,91.526,350.72,348.11800000000005,0.0
53032.0,STARLINK-4115,PAYLOAD,2022-07-28 14:00:01,15.73176013,0.0002197,53.2174,275.4447,19.7505,232.2354,0.00021296,0.00029342,0.0,0 STARLINK-4115,1 53032U 22076AY  22209.58334491  .00029342  00000-0  21296-3 0  9995,2 53032  53.2174 275.4447 0002197  19.7505 232.2354 15.73176013  1305,6727.964,91.535,351.307,348.35,0.0
53032.0,STARLINK-4115,PAYLOAD,2022-07-28 22:00:00,15.73199783,0.0002038,53.2175,273.7936,20.1257,320.7725,7.5097e-05,9.931e-05,0.0,0 STARLINK-4115,1 53032U 22076AY  22209.91667824  .00009931  00000-0  75097-4 0  9992,2 53032  53.2175 273.7936 0002038  20.1257 320.7725 15.73199783  1308,6727.896,91.533,351.13199999999995,348.39,0.0
53032.0,STARLINK-4115,PAYLOAD,2022-07-29 00:00:00,15.73187542,0.0001992,53.2175,273.3808,20.7161,72.4194,0.00029594,0.00041096,0.0,0 STARLINK-4115,1 53032U 22076AY  22210.00001157  .00041096  00000-0  29594-3 0  9993,2 53032  53.2175 273.3808 0001992  20.7161  72.4194 15.73187542  3875,6727.931,91.534,351.136,348.455,0.0
53032.0,STARLINK-4115,PAYLOAD,2022-07-29 14:00:01,15.73152483,0.0002443,53.2171,270.4964,25.7037,133.0762,0.0004861,0.00068021,0.0,0 STARLINK-4115,1 53032U 22076AY  22210.58334491  .00068021  00000-0  48610-3 0  9993,2 53032  53.2171 270.4964 0002443  25.7037 133.0762 15.73152483  1308,6728.031,91.536,351.539,348.25199999999984,0.0
53032.0,STARLINK-4115,PAYLOAD,2022-07-29 22:00:00,15.73188031,0.0002251,53.2167,268.8453,28.0518,219.6247,9.1077e-05,0.00012174,0.0,0 STARLINK-4115,1 53032U 22076AY  22210.91667824  .00012174  00000-0  91077-4 0  9993,2 53032  53.2167 268.8453 0002251  28.0518 219.6247 15.73188031  1301,6727.929,91.534,351.309,348.28,0.0
53032.0,STARLINK-4115,PAYLOAD,2022-07-30 06:00:00,15.73231883,0.0002195,53.2168,267.1959,28.6287,307.9678,-7.0725e-05,-0.0001054999999999,0.0,0 STARLINK-4115,1 53032U 22076AY  22211.25001157 -.00010550  00000-0 -70725-4 0  9997,2 53032  53.2168 267.1959 0002195  28.6287 307.9678 15.73231883  4071,6727.804,91.531,351.146,348.1930000000001,0.0
53032.0,STARLINK-4115,PAYLOAD,2022-07-30 14:00:01,15.731953400000002,0.0002371,53.2167,265.5482,23.1373,42.4234,-7.981e-05,-0.00011806,0.0,0 STARLINK-4115,1 53032U 22076AY  22211.58334491 -.00011806  00000-0 -79810-4 0  9992,2 53032  53.2167 265.5482 0002371  23.1373  42.4234 15.73195340  1304,6727.908,91.533,351.369,348.17800000000005,0.0
53032.0,STARLINK-4115,PAYLOAD,2022-07-30 22:00:00,15.73175103,0.0002211999999999,53.217,263.8967,22.3798,132.1046,0.0002223,0.0003066,0.0,0 STARLINK-4115,1 53032U 22076AY  22211.91667824  .00030660  00000-0  22230-3 0  9998,2 53032  53.2170 263.8967 0002212  22.3798 132.1046 15.73175103  4174,6727.965999999999,91.535,351.319,348.343,0.0
53032.0,STARLINK-4115,PAYLOAD,2022-07-31 14:00:01,15.73189543,0.0002549999999999,53.2166,260.5996,23.4897,308.8431,0.00045737,0.00064036,0.0,0 STARLINK-4115,1 53032U 22076AY  22212.58334491  .00064036  00000-0  45737-3 0  9994,2 53032  53.2166 260.5996 0002550  23.4897 308.8431 15.73189543  1307,6727.925,91.534,351.506,348.074,0.0
53032.0,STARLINK-4115,PAYLOAD,2022-07-31 22:00:00,15.73242919,0.0002251,53.2165,258.948,23.3906,37.8925,-0.00026151,-0.00037232,0.0,0 STARLINK-4115,1 53032U 22076AY  22212.91667824 -.00037232  00000-0 -26151-3 0  9999,2 53032  53.2165 258.9480 0002251  23.3906  37.8925 15.73242919  1307,6727.773,91.531,351.152,348.12300000000016,0.0
53032.0,STARLINK-4115,PAYLOAD,2022-08-01 04:00:00,15.73217482,0.0002171999999999,53.2166,257.7108,23.6348,14.3711,-0.00026232,-0.00037305,0.0,0 STARLINK-4115,1 53032U 22076AY  22213.16667824 -.00037305  00000-0 -26232-3 0  9998,2 53032  53.2166 257.7108 0002172  23.6348  14.3711 15.73217482  4377,6727.845,91.532,351.172,348.249,0.0
53032.0,STARLINK-4115,PAYLOAD,2022-08-01 14:00:01,15.731783600000002,0.0002466,53.2165,255.6509,18.4508,220.7339,0.00054269,0.00076171,0.0,0 STARLINK-4115,1 53032U 22076AY  22213.58334491  .00076171  00000-0  54269-3 0  9998,2 53032  53.2165 255.6509 0002466  18.4508 220.7339 15.73178360  1304,6727.956999999999,91.534,351.481,348.163,0.0
53032.0,STARLINK-4115,PAYLOAD,2022-08-01 22:00:00,15.73218036,0.0002320999999999,53.2169,253.9992,22.6217,305.497,3.7693e-05,4.676e-05,0.0,0 STARLINK-4115,1 53032U 22076AY  22213.91667824  .00004676  00000-0  37693-4 0  9998,2 53032  53.2169 253.9992 0002321  22.6217 305.4970 15.73218036  1306,6727.844,91.532,351.27,348.147,0.0
53032.0,STARLINK-4115,PAYLOAD,2022-08-02 14:00:01,15.73169435,0.0002722,53.2167,250.702,26.9634,119.0343,0.00044717,0.0006253,0.0,0 STARLINK-4115,1 53032U 22076AY  22214.58334491  .00062530  00000-0  44717-3 0  9990,2 53032  53.2167 250.7020 0002722  26.9634 119.0343 15.73169435  4591,6727.982,91.535,351.67900000000014,348.016,0.0
53032.0,STARLINK-4115,PAYLOAD,2022-08-03 06:00:00,15.73362428,0.0002607,53.2169,247.4014,20.4984,303.5958,-0.00081969,-0.00114921,0.0,0 STARLINK-4115,1 53032U 22076AY  22215.25001157 -.00114921  00000-0 -81969-3 0  9999,2 53032  53.2169 247.4014 0002607  20.4984 303.5958 15.73362428  4700,6727.432,91.524,351.051,347.543,0.0
